[{"OBJECT_NAME":"YAOGAN-39 03A","OBJECT_ID":"2023-152A","EPOCH":"2026-03-06T09:52:18.079104","MEAN_MOTION":15.22956575,"ECCENTRICITY":0.00039122,"INCLINATION":35.0006,"RA_OF_ASC_NODE":198.8634,"ARG_OF_PERICENTER":303.7832,"MEAN_ANOMALY":56.251,"EPHEMERIS_TYPE":0,"CLASSIFICATION_TYPE":"U","NORAD_CAT_ID":57986,"ELEMENT_SET_NO":999,"REV_AT_EPOCH":13476,"BSTAR":5.5320223e-5,"MEAN_MOTION_DOT":1.294e-5,"MEAN_MOTION_DDOT":0},{"OBJECT_NAME":"SITRO-AIS-64","OBJECT_ID":"2025-313AW","EPOCH":"2026-03-09T22:35:09.372480","MEAN_MOTION":15.230077,"ECCENTRICITY":0.00087165,"INCLINATION":97.4006,"RA_OF_ASC_NODE":145.3433,"ARG_OF_PERICENTER":353.6224,"MEAN_ANOMALY":6.49,"EPHEMERIS_TYPE":0,"CLASSIFICATION_TYPE":"U","NORAD_CAT_ID":67292,"ELEMENT_SET_NO":999,"REV_AT_EPOCH":1086,"BSTAR":0.00054511054,"MEAN_MOTION_DOT":0.00012775,"MEAN_MOTION_DDOT":0}]
